STARLINK-3363           
1 51135U 22005AH  25191.54377371 -.00000245  00000+0  26751-5 0  9996
2 51135  53.2193 306.0528 0001221  91.6690 268.4442 15.08833664193299
STARLINK-3253           
1 51136U 22005AJ  25191.53544132 -.00000108  00000+0  11319-4 0  9998
2 51136  53.2185 305.9891 0001315  95.3154 264.7988 15.08835704193305
STARLINK-3180           
1 51137U 22005AK  25190.61546381 -.00000467  00000+0 -11258-4 0  9996
2 51137  53.2187 310.3231 0001283  94.2590 265.8549 15.08837058192041
STARLINK-3177           
1 51138U 22005AL  25191.55019148 -.00000743  00000+0 -28627-4 0  9992
2 51138  53.2197 306.1301 0001329  94.6846 265.4298 15.08830750193290
STARLINK-3172           
1 51139U 22005AM  25191.53642502  .00000058  00000+0  21720-4 0  9991
2 51139  53.2186 306.1980 0001211  89.3549 270.7582 15.08835450193290
STARLINK-3175           
1 51140U 22005AN  25191.54746421  .00000409  00000+0  43802-4 0  9994
2 51140  53.2194 306.1519 0001289  90.9629 269.1511 15.08834534193297
STARLINK-3179           
1 51141U 22005AP  25191.52810244  .00000337  00000+0  39253-4 0  9993
2 51141  53.2182 306.2258 0001248  90.4890 269.6245 15.08840865193299
STARLINK-3369           
1 51142U 22005AQ  25191.52903387  .00000335  00000+0  39100-4 0  9994
2 51142  53.2187 296.2902 0001022  84.7831 275.3278 15.08838058193460
STARLINK-3184           
1 51143U 22005AR  25190.65134543  .00000007  00000+0  18533-4 0  9991
2 51143  53.2190 320.1637 0001218  90.3563 269.7568 15.08836895193016
STARLINK-3185           
1 51144U 22005AS  25190.60537999  .00000069  00000+0  22446-4 0  9995
2 51144  53.2185 310.3790 0001258  88.1350 271.9787 15.08841093192041
STARLINK-3354           
1 51146U 22005AU  25191.54008111  .00003178  00000+0  21756-3 0  9996
2 51146  53.2186 306.1819 0001268  90.6582 269.4556 15.08859636193291
STARLINK-3352           
1 51147U 22005AV  25191.50973866 -.00000434  00000+0 -91664-5 0  9992
2 51147  53.2187 316.2459 0001194  90.7782 269.3347 15.08834456193151
STARLINK-3359           
1 51148U 22005AW  25191.52449038  .00000268  00000+0  34927-4 0  9995
2 51148  53.2191 316.4479 0001157  90.0512 270.0613 15.08833188193149
STARLINK-3360           
1 51149U 22005AX  25191.55019982  .00000160  00000+0  28116-4 0  9994
2 51149  53.2186 315.9451 0001223  85.1699 274.9433 15.08837663193159
STARLINK-3357           
1 51150U 22005AY  25190.62646208 -.00000334  00000+0 -28746-5 0  9995
2 51150  53.2192 309.8897 0001297  90.6876 269.4265 15.08833556193163
STARLINK-3361           
1 51151U 22005AZ  25191.47647783  .00065084  00000+0  86861-3 0  9990
2 51151  53.2040 262.0646 0003380 272.1124  87.9502 15.57500660193917
STARLINK-3364           
1 51152U 22005BA  25190.79849903  .00000339  00000+0  39407-4 0  9990
2 51152  53.2201 319.1191 0001358  96.5295 263.5852 15.08837991191932
STARLINK-3181           
1 51461U 22010F   25191.00003165  .00002642  00000+0  18394-3 0  9996
2 51461  53.2177 288.5989 0001000  87.0430 273.0677 15.08848956190686
STARLINK-3166           
1 51462U 22010G   25190.59986462  .00000811  00000+0  69063-4 0  9996
2 51462  53.2181 290.4055 0001219  87.4284 272.6847 15.08838001190124
STARLINK-3419           
1 51463U 22010H   25190.57315042 -.00000523  00000+0 -14768-4 0  9999
2 51463  53.2199 290.5160 0001316  94.3908 265.7234 15.08831517189812
STARLINK-3189           
1 51464U 22010J   25190.59154781  .00000733  00000+0  64135-4 0  9997
2 51464  53.2185 290.4346 0001098  87.1187 272.9931 15.08835612190624
STARLINK-3401           
1 51465U 22010K   25190.58786977  .00000080  00000+0  23134-4 0  9994
2 51465  53.2191 290.4509 0001204  95.3615 264.7515 15.08833109190625
STARLINK-3178           
1 51467U 22010M   25190.96690506  .00000475  00000+0  47956-4 0  9996
2 51467  53.2178 288.7458 0001155  89.4703 270.6421 15.08835549190679
STARLINK-3174           
1 51468U 22010N   25191.23922368  .00000142  00000+0  26999-4 0  9997
2 51468  53.2187 287.4869 0001198  91.7976 268.3154 15.08834778190723
STARLINK-3182           
1 51469U 22010P   25190.99266637  .00000400  00000+0  43210-4 0  9992
2 51469  53.2189 288.6339 0001338  83.8983 276.2162 15.08842023190681
STARLINK-3415           
1 51472U 22010S   25190.96785479  .00000195  00000+0  30314-4 0  9995
2 51472  53.2183 288.6747 0001197  91.2366 268.8763 15.08834764190680
STARLINK-3528           
1 51714U 22016A   25191.10677936 -.00000490  00000+0 -12720-4 0  9996
2 51714  53.2192 338.0971 0001327  87.0721 273.0423 15.08835673187879
STARLINK-3533           
1 51715U 22016B   25190.63574322 -.00000899  00000+0 -38392-4 0  9995
2 51715  53.2195 340.2417 0001400  92.9827 267.1325 15.08837481187860
STARLINK-3543           
1 51716U 22016C   25190.70838855 -.00000371  00000+0 -52074-5 0  9997
2 51716  53.2192 339.9085 0001325  91.4393 268.6751 15.08833270186749
STARLINK-3445           
1 51717U 22016D   25190.71303717  .00000272  00000+0  35182-4 0  9991
2 51717  53.2196 339.9757 0001339 100.3479 259.7664 15.08830141186748
STARLINK-3546           
1 51718U 22016E   25190.68998115  .00000302  00000+0  37055-4 0  9995
2 51718  53.2191 339.9884 0001298  87.7738 272.3403 15.08842270187867
STARLINK-3540           
1 51719U 22016F   25191.56584707  .00001372  00000+0  10428-3 0  9994
2 51719  53.2188 336.1360 0001370  80.6925 279.4222 15.08838475187941
STARLINK-3526           
1 51720U 22016G   25191.54470060  .00000017  00000+0  19167-4 0  9995
2 51720  53.2197 336.1239 0001361  87.1108 273.0040 15.08835829187929
STARLINK-3524           
1 51721U 22016H   25191.55574454 -.00000354  00000+0 -41586-5 0  9996
2 51721  53.2195 336.1126 0001281  91.5366 268.5773 15.08834036188000
STARLINK-3535           
1 51722U 22016J   25191.54006909 -.00000365  00000+0 -48164-5 0  9992
2 51722  53.2201 336.1734 0001349  85.2594 274.8553 15.08840956187937
STARLINK-3529           
1 51724U 22016L   25191.40023178  .00001406  00000+0  10643-3 0  9990
2 51724  53.2189 336.7997 0001262  87.3983 272.7153 15.08823190187912
STARLINK-3522           
1 51725U 22016M   25191.54374539 -.00000182  00000+0  66336-5 0  9999
2 51725  53.2193 336.1566 0001302  86.2889 273.8252 15.08836482188003
STARLINK-3527           
1 51726U 22016N   25190.64674726  .00000079  00000+0  23042-4 0  9991
2 51726  53.2186 330.1811 0001237  91.4502 268.6632 15.08838106186872
STARLINK-3532           
1 51727U 22016P   25191.13894729 -.00000248  00000+0  25173-5 0  9991
2 51727  53.2189 337.9731 0000872  93.3063 266.8029 15.08842537187873
STARLINK-3523           
1 51729U 22016R   25190.65043187 -.00002986  00000+0 -16962-3 0  9999
2 51729  53.2185 330.1657 0001322  87.3303 272.7840 15.08836942186873
STARLINK-3514           
1 51731U 22016T   25190.70930702 -.00000044  00000+0  15349-4 0  9997
2 51731  53.2192 329.9022 0001302  86.8680 273.2461 15.08838195186884
STARLINK-3518           
1 51732U 22016U   25191.55570985  .00000385  00000+0  42305-4 0  9994
2 51732  53.2193 326.1036 0001296  87.2671 272.8470 15.08833218188155
STARLINK-3525           
1 51733U 22016V   25190.70290232  .00000592  00000+0  55288-4 0  9999
2 51733  53.2194 329.9423 0001258  83.4790 276.6346 15.08839724186886
STARLINK-3450           
1 51734U 22016W   25191.08098844 -.00000112  00000+0  11048-4 0  9992
2 51734  53.2195 328.2356 0001283  93.4637 266.6502 15.08835949188042
STARLINK-3517           
1 51735U 22016X   25191.08835486  .00001831  00000+0  13311-3 0  9996
2 51735  53.2189 328.2016 0001156  95.9655 264.1468 15.08827589188051
STARLINK-3447           
1 51736U 22016Y   25190.68451865 -.00001007  00000+0 -45217-4 0  9995
2 51736  53.2201 330.1041 0001385  96.2225 263.8925 15.08831016186870
STARLINK-3509           
1 51737U 22016Z   25191.08466729 -.00000116  00000+0  10793-4 0  9996
2 51737  53.2198 328.2194 0001326  92.7272 267.3871 15.08837161187991
STARLINK-3515           
1 51738U 22016AA  25191.52994318  .00000193  00000+0  30201-4 0  9996
2 51738  53.2192 326.2194 0001294  93.8320 266.2820 15.08837543188115
STARLINK-3516           
1 51739U 22016AB  25190.61362674 -.00000021  00000+0  16747-4 0  9990
2 51739  53.2189 330.3332 0001226  90.5384 269.5749 15.08835897186867
STARLINK-3500           
1 51740U 22016AC  25190.66146286  .00000057  00000+0  21648-4 0  9990
2 51740  53.2193 330.1174 0001280  87.9242 272.1897 15.08841059186871
STARLINK-3520           
1 51741U 22016AD  25191.07090951  .00000587  00000+0  54962-4 0  9997
2 51741  53.2200 328.2892 0001365  86.0420 274.0728 15.08822680188053
STARLINK-3521           
1 51742U 22016AE  25190.60997057 -.00000281  00000+0  42201-6 0  9996
2 51742  53.2187 330.5422 0001225  90.4563 269.6569 15.08833732186865
STARLINK-3512           
1 51743U 22016AF  25190.67708850  .00001954  00000+0  14078-3 0  9990
2 51743  53.2187 319.9705 0000978  91.4878 268.6227 15.08844694187012
STARLINK-3452           
1 51744U 22016AG  25191.51523013 -.00000329  00000+0 -25602-5 0  9995
2 51744  53.2193 326.3126 0001298  88.7955 271.3186 15.08837250188061
STARLINK-3449           
1 51745U 22016AH  25191.52626554  .00000109  00000+0  24933-4 0  9990
2 51745  53.2194 326.2354 0001238  90.7001 269.4133 15.08835321188139
STARLINK-3502           
1 51746U 22016AJ  25191.07918420 -.00000023  00000+0  16650-4 0  9990
2 51746  53.2192 318.2529 0001369  85.8343 274.2806 15.08841858188191
STARLINK-3446           
1 51747U 22016AK  25191.51988416  .00000648  00000+0  58833-4 0  9993
2 51747  53.2190 326.3130 0001257  87.0344 273.0792 15.08834850188138
STARLINK-3501           
1 51748U 22016AL  25191.53454842 -.00000364  00000+0 -47425-5 0  9990
2 51748  53.2190 316.1999 0001832  84.7507 275.3694 15.08833562188217
STARLINK-3451           
1 51749U 22016AM  25191.09940841  .00000417  00000+0  44294-4 0  9998
2 51749  53.2194 328.3352 0001331  84.7735 275.3409 15.08841959188041
